{
    "links": {
        "self": "http://www.neowsapp.com/rest/v1/neo/3256581?api_key=iIulBulltgU6a56xZRHN4H3l9WmuAYTsLGpBGhQ2"
    },
    "id": "3256581",
    "neo_reference_id": "3256581",
    "name": "(2004 TT12)",
    "designation": "2004 TT12",
    "nasa_jpl_url": "http://ssd.jpl.nasa.gov/sbdb.cgi?sstr=3256581",
    "absolute_magnitude_h": 24.0,
    "estimated_diameter": {
        "kilometers": {
            "estimated_diameter_min": 0.0421264611,
            "estimated_diameter_max": 0.0941976306
        },
        "meters": {
            "estimated_diameter_min": 42.1264610556,
            "estimated_diameter_max": 94.1976305719
        },
        "miles": {
            "estimated_diameter_min": 0.0261761612,
            "estimated_diameter_max": 0.0585316759
        },
        "feet": {
            "estimated_diameter_min": 138.2101784897,
            "estimated_diameter_max": 309.0473542854
        }
    },
    "is_potentially_hazardous_asteroid": false,
    "close_approach_data": [
        {
            "close_approach_date": "2000-11-07",
            "close_approach_date_full": "2000-Nov-07 12:45",
            "epoch_date_close_approach": 973601100000,
            "relative_velocity": {
                "kilometers_per_second": "13.0877176145",
                "kilometers_per_hour": "47115.7834123631",
                "miles_per_hour": "29275.9155319764"
            },
            "miss_distance": {
                "astronomical": "0.3795054153",
                "lunar": "147.6276065517",
                "kilometers": "56773201.782345411",
                "miles": "35277231.7605762318"
            },
            "orbiting_body": "Earth"
        },
        {
            "close_approach_date": "2004-10-06",
            "close_approach_date_full": "2004-Oct-06 04:58",
            "epoch_date_close_approach": 1097038680000,
            "relative_velocity": {
                "kilometers_per_second": "5.649823743",
                "kilometers_per_hour": "20339.36547474",
                "miles_per_hour": "12638.0907306794"
            },
            "miss_distance": {
                "astronomical": "0.1453630544",
                "lunar": "56.5462281616",
                "kilometers": "21746003.314934128",
                "miles": "13512339.8843738464"
            },
            "orbiting_body": "Earth"
        },
        {
            "close_approach_date": "2008-09-10",
            "close_approach_date_full": "2008-Sep-10 20:09",
            "epoch_date_close_approach": 1221077340000,
            "relative_velocity": {
                "kilometers_per_second": "15.4942215676",
                "kilometers_per_hour": "55779.1976433002",
                "miles_per_hour": "34659.0242245273"
            },
            "miss_distance": {
                "astronomical": "0.4678915612",
                "lunar": "182.0098173068",
                "kilometers": "69995580.946494644",
                "miles": "43493237.1919443272"
            },
            "orbiting_body": "Earth"
        }
    ],
    "orbital_data": {
        "orbit_id": "11",
        "orbit_determination_date": "2017-04-06 09:12:01",
        "first_observation_date": "2004-10-04",
        "last_observation_date": "2004-11-18",
        "data_arc_in_days": 45,
        "observations_used": 22,
        "orbit_uncertainty": "7",
        "minimum_orbit_intersection": ".148558",
        "jupiter_tisserand_invariant": "3.246",
        "epoch_osculation": "2459000.5",
        "eccentricity": ".5419038203609093",
        "semi_major_axis": "2.500442469944051",
        "inclination": ".7261732894524721",
        "ascending_node_longitude": "183.9876377126495",
        "orbital_period": "1444.187983310105",
        "perihelion_distance": "1.145443142888702",
        "perihelion_argument": "197.6347964778334",
        "aphelion_distance": "3.855441796999401",
        "perihelion_time": "2459053.544085488424",
        "mean_anomaly": "346.7774341037898",
        "mean_motion": ".2492750280160021",
        "equinox": "J2000",
        "orbit_class": {
            "orbit_class_type": "AMO",
            "orbit_class_description": "Near-Earth asteroid orbits similar to that of 1221 Amor",
            "orbit_class_range": "1.017 AU < q (perihelion) < 1.3 AU"
        }
    },
    "is_sentry_object": false
}